IRIDIUM 116             
1 43072U 17083C   24060.45786143  .00000070  00000+0  17945-4 0  9991
2 43072  86.3975 312.5541 0002280  82.9895 277.1560 14.34216897323955
IRIDIUM 130             
1 43073U 17083D   24060.21683646  .00000156  00000+0  48496-4 0  9990
2 43073  86.3986 312.8487 0001965  89.7305 270.4116 14.34215221323863
IRIDIUM 151             
1 43074U 17083E   24060.12169966  .00000035  00000+0  54642-5 0  9992
2 43074  86.3981 312.7333 0002098  75.4097 284.7331 14.34216047323871
IRIDIUM 134             
1 43075U 17083F   24060.43883310  .00000150  00000+0  46665-4 0  9996
2 43075  86.3980 312.5974 0002175  90.9843 269.1602 14.34216002323887
IRIDIUM 137             
1 43076U 17083G   24060.17244553  .00000175  00000+0  55442-4 0  9998
2 43076  86.3982 312.7848 0002377  77.2321 282.9140 14.34219114323916
IRIDIUM 141             
1 43077U 17083H   24060.44517073  .00000352  00000+0  11853-3 0  9993
2 43077  86.3976 312.5489 0001977  86.0273 274.1149 14.34222190323952
IRIDIUM 153             
1 43078U 17083J   24060.11827210  .00000191  00000+0  61078-4 0  9991
2 43078  86.3929 281.1242 0001609  82.0016 278.1362 14.34216290325016
IRIDIUM 131             
1 43079U 17083K   24059.66503235  .00000345  00000+0  11602-3 0  9996
2 43079  86.3984 313.0050 0002171  82.6110 277.5333 14.34221277323779
